*******************************************************************************
JPL/HORIZONS                    19P/Borrelly               2017-Oct-03 07:55:49
Rec #:900302          Soln.date: 2017-May-07_17:25:46   # obs: 2845 (1973-2017)

IAU76/J2000 helio. ecliptic osc. elements (au, days, deg., period=Julian yrs):

  EPOCH=  2453126.5 ! 2004-May-01.0000000 (TDB)    RMSW= n.a.
   EC= .6232892711821078   QR= 1.359799738782305   TP= 2452166.7536303061
   OM= 75.43597686258941   W= 353.3506872274951    IN= 30.31307021679391
   A= 3.609665546424225    MA= 137.93043492053     ADIST= 5.859531354066144
   PER= 6.8581765453391    N= .143715502           ANGMOM= .025557412
   DAN= 1.36332            DDN= 5.79504            L= 69.6892033
   B= -3.3504474           MOID= .377543           TP= 2001-Sep-14.2536303061

Comet physical (GM= km^3/s^2; RAD= km):
   GM= n.a.                RAD= 2.4
   M1=  8.2      M2=  13.8     k1=  17.    k2=  5.      PHCOF=  .030

Comet non-gravitational force model (AMRAT=m^2/kg;A1-A3=au/d^2;DT=days;R0=au):
   AMRAT=  0.                                      DT=  -47.24577
   A1= 1.895695477724E-9   A2= -7.833075709641E-11 A3= 2.85430829972E-10
 Standard model:
   ALN=  .1112620426   NK=  4.6142   NM=  2.15     NN=  5.093    R0=  2.808

COMET comments
1: soln ref.= JPL#K157/5, data arc: 1973-08-23 to 2017-03-30
2: k1=17., k2=5., phase coef.=0.03;
*******************************************************************************


*******************************************************************************
Ephemeris / WWW_USER Tue Oct  3 07:55:49 2017 Pasadena, USA      / Horizons
*******************************************************************************
Target body name: 19P/Borrelly                    {source: JPL#K157/5}
Center body name: Earth (399)                     {source: DE431}
Center-site name: Gemini South Obs., Cerro Pachon
*******************************************************************************
Start time      : A.D. 2017-Aug-15 00:00:00.0000 UT
Stop  time      : A.D. 2017-Aug-15 23:59:00.0000 UT
Step-size       : 50 steps
*******************************************************************************
Target pole/equ : IAU                             {East-longitude -}
Target radii    : 4.2 x 4.2 x 4.2 km              {Equator, meridian, pole}
Center geodetic : 289.263400,-30.240623,2.7123285 {E-lon(deg),Lat(deg),Alt(km)}
Center cylindric: 289.263400,5517.21435,-3194.812 {E-lon(deg),Dxy(km),Dz(km)}
Center pole/equ : High-precision EOP model        {East-longitude +}
Center radii    : 6378.1 x 6378.1 x 6356.8 km     {Equator, meridian, pole}
Target primary  : Sun
Vis. interferer : MOON (R_eq= 1737.400) km        {source: DE431}
Rel. light bend : Sun, EARTH                      {source: DE431}
Rel. lght bnd GM: 1.3271E+11, 3.9860E+05 km^3/s^2
Small-body perts: Yes                             {source: SB431-N16}
Atmos refraction: NO (AIRLESS)
RA format       : HMS
Time format     : CAL
RTS-only print  : NO
EOP file        : eop.171002.p171224
EOP coverage    : DATA-BASED 1962-JAN-20 TO 2017-OCT-02. PREDICTS-> 2017-DEC-23
Units conversion: 1 au= 149597870.700 km, c= 299792.458 km/s, 1 day= 86400.0 s
Table cut-offs 1: Elevation (-90.0deg=NO ),Airmass (>38.000=NO), Daylight (NO )
Table cut-offs 2: Solar elongation (  0.0,180.0=NO ),Local Hour Angle( 0.0=NO )
Table cut-offs 3: RA/DEC angular rate (     0.0=NO )
*******************************************************************************
Initial IAU76/J2000 heliocentric ecliptic osculating elements (au, days, deg.):
  EPOCH=  2453126.5 ! 2004-May-01.0000000 (TDB)    RMSW= n.a.
   EC= .6232892711821078   QR= 1.359799738782305   TP= 2452166.7536303061
   OM= 75.43597686258941   W= 353.3506872274951    IN= 30.31307021679391
  Equivalent ICRF heliocentric equatorial cartesian coordinates (au, au/d):
   X=-2.901624145572271E+00  Y=-4.714098832558961E+00  Z=-1.011739942319315E+00
  VX= 2.370889154078356E-03 VY=-2.679782026686279E-03 VZ=-3.223564467123717E-03
Comet physical (GM= km^3/s^2; RAD= km):
   GM= n.a.                RAD= 2.4
   M1=  8.2      M2=  13.8     k1=  17.    k2=  5.      PHCOF=  .030
Comet non-gravitational force model (AMRAT=m^2/kg;A1-A3=au/d^2;DT=days;R0=au):
   AMRAT=  0.                                      DT=  -47.24577
   A1= 1.895695477724E-9   A2= -7.833075709641E-11 A3= 2.85430829972E-10
 Standard model:
   ALN=  .1112620426   NK=  4.6142   NM=  2.15     NN=  5.093    R0=  2.808
*******************************************************************************
 Date__(UT)__HR:MN:SC.fff     R.A.___(ICRF/J2000.0)___DEC dRA*cosD d(DEC)/dt
****************************************************************************
$$SOE
 2017-Aug-15 00:00:00.000     14 50 13.1823 -02 58 45.704 9.304921  -12.4881
 2017-Aug-15 00:28:46.800     14 50 13.4803 -02 58 51.699 9.338051  -12.4867
 2017-Aug-15 00:57:33.600     14 50 13.7794 -02 58 57.693 9.375816  -12.4855
 2017-Aug-15 01:26:20.400     14 50 14.0798 -02 59 03.686 9.417733  -12.4845
 2017-Aug-15 01:55:07.200     14 50 14.3816 -02 59 09.679 9.463256  -12.4837
 2017-Aug-15 02:23:54.000     14 50 14.6849 -02 59 15.671 9.511780  -12.4832
 2017-Aug-15 02:52:40.800     14 50 14.9897 -02 59 21.664 9.562654  -12.4830
 2017-Aug-15 03:21:27.600     14 50 15.2963 -02 59 27.656 9.615187  -12.4830
 2017-Aug-15 03:50:14.400     14 50 15.6045 -02 59 33.649 9.668666  -12.4834
 2017-Aug-15 04:19:01.200  s  14 50 15.9145 -02 59 39.642 9.722359  -12.4841
 2017-Aug-15 04:47:48.000     14 50 16.2262 -02 59 45.635 9.775534  -12.4851
 2017-Aug-15 05:16:34.800  m  14 50 16.5395 -02 59 51.629 9.827466  -12.4864
 2017-Aug-15 05:45:21.600  m  14 50 16.8545 -02 59 57.624 9.877449  -12.4880
 2017-Aug-15 06:14:08.400  m  14 50 17.1711 -03 00 03.619 9.924809  -12.4899
 2017-Aug-15 06:42:55.200  m  14 50 17.4891 -03 00 09.616 9.968913  -12.4920
 2017-Aug-15 07:11:42.000  m  14 50 17.8085 -03 00 15.613 10.00918  -12.4944
 2017-Aug-15 07:40:28.800  m  14 50 18.1291 -03 00 21.612 10.04509  -12.4970
 2017-Aug-15 08:09:15.600  m  14 50 18.4507 -03 00 27.612 10.07619  -12.4997
 2017-Aug-15 08:38:02.400  m  14 50 18.7733 -03 00 33.613 10.10210  -12.5026
 2017-Aug-15 09:06:49.200  m  14 50 19.0967 -03 00 39.616 10.12254  -12.5057
 2017-Aug-15 09:35:36.000  m  14 50 19.4205 -03 00 45.621 10.13730  -12.5087
 2017-Aug-15 10:04:22.800 Am  14 50 19.7448 -03 00 51.627 10.14625  -12.5119
 2017-Aug-15 10:33:09.600 Nm  14 50 20.0693 -03 00 57.634 10.14938  -12.5150
 2017-Aug-15 11:01:56.400 Cm  14 50 20.3938 -03 01 03.643 10.14676  -12.5181
 2017-Aug-15 11:30:43.200 *m  14 50 20.7181 -03 01 09.653 10.13853  -12.5210
 2017-Aug-15 11:59:30.000 *m  14 50 21.0420 -03 01 15.665 10.12495  -12.5239
 2017-Aug-15 12:28:16.800 *m  14 50 21.3654 -03 01 21.678 10.10635  -12.5266
 2017-Aug-15 12:57:03.600 *m  14 50 21.6882 -03 01 27.692 10.08314  -12.5291
 2017-Aug-15 13:25:50.400 *m  14 50 22.0102 -03 01 33.708 10.05581  -12.5314
 2017-Aug-15 13:54:37.200 *m  14 50 22.3312 -03 01 39.724 10.02491  -12.5335
 2017-Aug-15 14:23:24.000 *m  14 50 22.6512 -03 01 45.741 9.991028  -12.5353
 2017-Aug-15 14:52:10.800 *m  14 50 22.9700 -03 01 51.760 9.954834  -12.5368
 2017-Aug-15 15:20:57.600 *m  14 50 23.2877 -03 01 57.778 9.917012  -12.5380
 2017-Aug-15 15:49:44.400 *r  14 50 23.6041 -03 02 03.798 9.878277  -12.5389
 2017-Aug-15 16:18:31.200 *m  14 50 23.9193 -03 02 09.817 9.839359  -12.5394
 2017-Aug-15 16:47:18.000 *   14 50 24.2333 -03 02 15.837 9.800988  -12.5397
 2017-Aug-15 17:16:04.800 *   14 50 24.5461 -03 02 21.857 9.763889  -12.5396
 2017-Aug-15 17:44:51.600 *   14 50 24.8576 -03 02 27.876 9.728765  -12.5393
 2017-Aug-15 18:13:38.400 *   14 50 25.1682 -03 02 33.896 9.696287  -12.5386
 2017-Aug-15 18:42:25.200 *   14 50 25.4777 -03 02 39.915 9.667085  -12.5377
 2017-Aug-15 19:11:12.000 *   14 50 25.7863 -03 02 45.933 9.641736  -12.5366
 2017-Aug-15 19:39:58.800 *   14 50 26.0942 -03 02 51.951 9.620757  -12.5352
 2017-Aug-15 20:08:45.600 *   14 50 26.4015 -03 02 57.968 9.604596  -12.5337
 2017-Aug-15 20:37:32.400 *   14 50 26.7084 -03 03 03.985 9.593623  -12.5320
 2017-Aug-15 21:06:19.200 *   14 50 27.0150 -03 03 10.000 9.588128  -12.5302
 2017-Aug-15 21:35:06.000 *   14 50 27.3216 -03 03 16.015 9.588312  -12.5284
 2017-Aug-15 22:03:52.800 *t  14 50 27.6282 -03 03 22.029 9.594287  -12.5265
 2017-Aug-15 22:32:39.600 C   14 50 27.9351 -03 03 28.042 9.606074  -12.5246
 2017-Aug-15 23:01:26.400 N   14 50 28.2425 -03 03 34.054 9.623602  -12.5227
 2017-Aug-15 23:30:13.200 A   14 50 28.5505 -03 03 40.065 9.646707  -12.5210
 2017-Aug-15 23:59:00.000     14 50 28.8594 -03 03 46.075 9.675139  -12.5193
$$EOE
*******************************************************************************
Column meaning:

TIME

  Prior to 1962, times are UT1. Dates thereafter are UTC. Any 'b' symbol in
the 1st-column denotes a B.C. date. First-column blank (" ") denotes an A.D.
date. Calendar dates prior to 1582-Oct-15 are in the Julian calendar system.
Later calendar dates are in the Gregorian system.

  Time tags refer to the same instant throughout the solar system, regardless
of where the observer is located. For example, if an observation from the
surface of another body has an output time-tag of 12:31:00 UTC, an Earth-based
time-scale, it refers to the instant on that body simultaneous to 12:31:00 UTC
on Earth.

  The Barycentric Dynamical Time scale (TDB) is used internally as defined by
the planetary equations of motion. Conversion between TDB and the selected
non-uniform UT output time-scale has not been determined for UTC times after
the next July or January 1st. The last known leap-second is used as a constant
over future intervals.

  NOTE: "n.a." in output means quantity "not available" at the print-time.

SOLAR PRESENCE (OBSERVING SITE)
  Time tag is followed by a blank, then a solar-presence symbol:

        '*'  Daylight (refracted solar upper-limb on or above apparent horizon)
        'C'  Civil twilight/dawn
        'N'  Nautical twilight/dawn
        'A'  Astronomical twilight/dawn
        ' '  Night OR geocentric ephemeris

LUNAR PRESENCE WITH TARGET RISE/TRANSIT/SET MARKER (OBSERVING SITE)
  The solar-presence symbol is immediately followed by another marker symbol:

        'm'  Refracted upper-limb of Moon on or above apparent horizon
        ' '  Refracted upper-limb of Moon below apparent horizon OR geocentric
        'r'  Rise    (target body on or above cut-off RTS elevation)
        't'  Transit (target body at or past local maximum RTS elevation)
        's'  Set     (target body on or below cut-off RTS elevation)

RTS MARKERS (TVH)
  Rise and set are with respect to the reference ellipsoid true visual horizon
defined by the elevation cut-off angle. Horizon dip and yellow-light refraction
(Earth only) are considered. Accuracy is < or = to twice the requested search
step-size.

 R.A.___(ICRF/J2000.0)___DEC =
   J2000.0 astrometric right ascension and declination of target center.
Adjusted for light-time. Units: HMS (HH MM SS.ffff) and DMS (DD MM SS.fff)

 dRA*cosD d(DEC)/dt =
    The rate of change of target center apparent RA and DEC (airless).
d(RA)/dt is multiplied by the cosine of the declination.
    Units: ARCSECONDS PER HOUR


 Computations by ...
     Solar System Dynamics Group, Horizons On-Line Ephemeris System
     4800 Oak Grove Drive, Jet Propulsion Laboratory
     Pasadena, CA  91109   USA
     Information: http://ssd.jpl.nasa.gov/
     Connect    : telnet://ssd.jpl.nasa.gov:6775  (via browser)
                  telnet ssd.jpl.nasa.gov 6775    (via command-line)
     Author     : Jon.D.Giorgini@jpl.nasa.gov

*******************************************************************************